STARLINK-36967          
1 68013U 26039AD  26077.50003471 -.02587315  00000+0 -44930-1 0  9993
2 68013  43.0000   1.5841 0001986 278.0859  65.3567 15.53492860  4299
STARLINK-36985          
1 68014U 26039AE  26077.50003471 -.01978477  00000+0 -17989-1 0  9990
2 68014  43.0005   0.8040 0001635 256.6749  41.3231 15.70128993  4293
STARLINK-36335          
1 68015U 26040A   26077.50003471 -.01486695  00000+0 -81659-2 0  9995
2 68015  97.2722  26.3605 0001638 103.6179 158.9652 15.82365330  3799
STARLINK-36923          
1 68016U 26040B   26077.25002315 -.01399418  00000+0 -75514-2 0  9993
2 68016  97.2718  26.0979 0001287  93.8622 193.9118 15.83048169  3806
STARLINK-36568          
1 68017U 26040C   26077.50003471 -.01524958  00000+0 -84388-2 0  9994
2 68017  97.2724  26.3660 0001537  83.7110 191.8544 15.82279314  3843
STARLINK-36930          
1 68018U 26040D   26077.50003471 -.01485152  00000+0 -81712-2 0  9995
2 68018  97.2718  26.3625 0001890 111.3862 155.5387 15.82323486  3844
STARLINK-36921          
1 68019U 26040E   26077.25002315 -.01406606  00000+0 -75910-2 0  9994
2 68019  97.2720  26.1041 0001417 112.0621 188.5190 15.83060476  3806
STARLINK-36928          
1 68020U 26040F   26077.50003471 -.01502678  00000+0 -82829-2 0  9991
2 68020  97.2721  26.3676 0001495 101.2152 178.5448 15.82321657  3849
STARLINK-36858          
1 68021U 26040G   26077.14721812  .00034885  26689-5  98795-4 0  9993
2 68021  97.2721  26.1289 0002925  52.1701 307.9839 15.93719586  2699
STARLINK-36916          
1 68022U 26040H   26077.25002315 -.01447807  00000+0 -76816-2 0  9992
2 68022  97.2712  26.1069 0001568 112.4067 196.8244 15.83029715  3809
STARLINK-36871          
1 68023U 26040J   26077.50003471 -.01512272  00000+0 -83814-2 0  9990
2 68023  97.2715  26.3744 0001279  94.2022 202.8089 15.82225905  3849
STARLINK-36891          
1 68024U 26040K   26077.50003471 -.01452232  00000+0 -80524-2 0  9995
2 68024  97.2716  26.3767 0001613  97.0363 204.4029 15.82099521  3842
