CCSDS_OMM_VERS = 2.0
CREATION_DATE  = 
ORIGINATOR     = 

OBJECT_NAME    = STARLINK-36967
OBJECT_ID      = 2026-039AD
CENTER_NAME    = EARTH
REF_FRAME      = TEME
TIME_SYSTEM    = UTC
MEAN_ELEMENT_THEORY = SGP/SGP4

EPOCH          = 2026-03-18T12:00:02.998944
MEAN_MOTION    = 15.53492860
ECCENTRICITY   = .0001986
INCLINATION    = 43.0000
RA_OF_ASC_NODE = 1.5841
ARG_OF_PERICENTER = 278.0859
MEAN_ANOMALY   = 65.3567

EPHEMERIS_TYPE = 0
CLASSIFICATION_TYPE = U
NORAD_CAT_ID   = 68013
ELEMENT_SET_NO = 999
REV_AT_EPOCH   = 429
BSTAR          = -.4493E-1
MEAN_MOTION_DOT = -.2587315E-1
MEAN_MOTION_DDOT = 0

CCSDS_OMM_VERS = 2.0
CREATION_DATE  = 
ORIGINATOR     = 

OBJECT_NAME    = STARLINK-36985
OBJECT_ID      = 2026-039AE
CENTER_NAME    = EARTH
REF_FRAME      = TEME
TIME_SYSTEM    = UTC
MEAN_ELEMENT_THEORY = SGP/SGP4

EPOCH          = 2026-03-18T12:00:02.998944
MEAN_MOTION    = 15.70128993
ECCENTRICITY   = .0001635
INCLINATION    = 43.0005
RA_OF_ASC_NODE = 0.8040
ARG_OF_PERICENTER = 256.6749
MEAN_ANOMALY   = 41.3231

EPHEMERIS_TYPE = 0
CLASSIFICATION_TYPE = U
NORAD_CAT_ID   = 68014
ELEMENT_SET_NO = 999
REV_AT_EPOCH   = 429
BSTAR          = -.17989E-1
MEAN_MOTION_DOT = -.1978477E-1
MEAN_MOTION_DDOT = 0

CCSDS_OMM_VERS = 2.0
CREATION_DATE  = 
ORIGINATOR     = 

OBJECT_NAME    = STARLINK-36335
OBJECT_ID      = 2026-040A
CENTER_NAME    = EARTH
REF_FRAME      = TEME
TIME_SYSTEM    = UTC
MEAN_ELEMENT_THEORY = SGP/SGP4

EPOCH          = 2026-03-18T12:00:02.998944
MEAN_MOTION    = 15.82365330
ECCENTRICITY   = .0001638
INCLINATION    = 97.2722
RA_OF_ASC_NODE = 26.3605
ARG_OF_PERICENTER = 103.6179
MEAN_ANOMALY   = 158.9652

EPHEMERIS_TYPE = 0
CLASSIFICATION_TYPE = U
NORAD_CAT_ID   = 68015
ELEMENT_SET_NO = 999
REV_AT_EPOCH   = 379
BSTAR          = -.81659E-2
MEAN_MOTION_DOT = -.1486695E-1
MEAN_MOTION_DDOT = 0

CCSDS_OMM_VERS = 2.0
CREATION_DATE  = 
ORIGINATOR     = 

OBJECT_NAME    = STARLINK-36923
OBJECT_ID      = 2026-040B
CENTER_NAME    = EARTH
REF_FRAME      = TEME
TIME_SYSTEM    = UTC
MEAN_ELEMENT_THEORY = SGP/SGP4

EPOCH          = 2026-03-18T06:00:02.000160
MEAN_MOTION    = 15.83048169
ECCENTRICITY   = .00012878
INCLINATION    = 97.2718
RA_OF_ASC_NODE = 26.0979
ARG_OF_PERICENTER = 93.8622
MEAN_ANOMALY   = 193.9118

EPHEMERIS_TYPE = 0
CLASSIFICATION_TYPE = U
NORAD_CAT_ID   = 68016
ELEMENT_SET_NO = 999
REV_AT_EPOCH   = 380
BSTAR          = -.75513585E-2
MEAN_MOTION_DOT = -.1399418E-1
MEAN_MOTION_DDOT = 0

CCSDS_OMM_VERS = 2.0
CREATION_DATE  = 
ORIGINATOR     = 

OBJECT_NAME    = STARLINK-36568
OBJECT_ID      = 2026-040C
CENTER_NAME    = EARTH
REF_FRAME      = TEME
TIME_SYSTEM    = UTC
MEAN_ELEMENT_THEORY = SGP/SGP4

EPOCH          = 2026-03-18T12:00:02.998944
MEAN_MOTION    = 15.82279314
ECCENTRICITY   = .0001537
INCLINATION    = 97.2724
RA_OF_ASC_NODE = 26.3660
ARG_OF_PERICENTER = 83.7110
MEAN_ANOMALY   = 191.8544

EPHEMERIS_TYPE = 0
CLASSIFICATION_TYPE = U
NORAD_CAT_ID   = 68017
ELEMENT_SET_NO = 999
REV_AT_EPOCH   = 384
BSTAR          = -.84388E-2
MEAN_MOTION_DOT = -.1524958E-1
MEAN_MOTION_DDOT = 0

CCSDS_OMM_VERS = 2.0
CREATION_DATE  = 
ORIGINATOR     = 

OBJECT_NAME    = STARLINK-36930
OBJECT_ID      = 2026-040D
CENTER_NAME    = EARTH
REF_FRAME      = TEME
TIME_SYSTEM    = UTC
MEAN_ELEMENT_THEORY = SGP/SGP4

EPOCH          = 2026-03-18T12:00:02.998944
MEAN_MOTION    = 15.82323486
ECCENTRICITY   = .000189
INCLINATION    = 97.2718
RA_OF_ASC_NODE = 26.3625
ARG_OF_PERICENTER = 111.3862
MEAN_ANOMALY   = 155.5387

EPHEMERIS_TYPE = 0
CLASSIFICATION_TYPE = U
NORAD_CAT_ID   = 68018
ELEMENT_SET_NO = 999
REV_AT_EPOCH   = 384
BSTAR          = -.81712E-2
MEAN_MOTION_DOT = -.1485152E-1
MEAN_MOTION_DDOT = 0

CCSDS_OMM_VERS = 2.0
CREATION_DATE  = 
ORIGINATOR     = 

OBJECT_NAME    = STARLINK-36921
OBJECT_ID      = 2026-040E
CENTER_NAME    = EARTH
REF_FRAME      = TEME
TIME_SYSTEM    = UTC
MEAN_ELEMENT_THEORY = SGP/SGP4

EPOCH          = 2026-03-18T06:00:02.000160
MEAN_MOTION    = 15.83060476
ECCENTRICITY   = .00014174
INCLINATION    = 97.2720
RA_OF_ASC_NODE = 26.1041
ARG_OF_PERICENTER = 112.0621
MEAN_ANOMALY   = 188.5190

EPHEMERIS_TYPE = 0
CLASSIFICATION_TYPE = U
NORAD_CAT_ID   = 68019
ELEMENT_SET_NO = 999
REV_AT_EPOCH   = 380
BSTAR          = -.75909749E-2
MEAN_MOTION_DOT = -.1406606E-1
MEAN_MOTION_DDOT = 0

CCSDS_OMM_VERS = 2.0
CREATION_DATE  = 
ORIGINATOR     = 

OBJECT_NAME    = STARLINK-36928
OBJECT_ID      = 2026-040F
CENTER_NAME    = EARTH
REF_FRAME      = TEME
TIME_SYSTEM    = UTC
MEAN_ELEMENT_THEORY = SGP/SGP4

EPOCH          = 2026-03-18T12:00:02.998944
MEAN_MOTION    = 15.82321657
ECCENTRICITY   = .0001495
INCLINATION    = 97.2721
RA_OF_ASC_NODE = 26.3676
ARG_OF_PERICENTER = 101.2152
MEAN_ANOMALY   = 178.5448

EPHEMERIS_TYPE = 0
CLASSIFICATION_TYPE = U
NORAD_CAT_ID   = 68020
ELEMENT_SET_NO = 999
REV_AT_EPOCH   = 384
BSTAR          = -.82829E-2
MEAN_MOTION_DOT = -.1502678E-1
MEAN_MOTION_DDOT = 0

CCSDS_OMM_VERS = 2.0
CREATION_DATE  = 
ORIGINATOR     = 

OBJECT_NAME    = STARLINK-36858
OBJECT_ID      = 2026-040G
CENTER_NAME    = EARTH
REF_FRAME      = TEME
TIME_SYSTEM    = UTC
MEAN_ELEMENT_THEORY = SGP/SGP4

EPOCH          = 2026-03-18T03:31:59.645568
MEAN_MOTION    = 15.93719586
ECCENTRICITY   = .00029258
INCLINATION    = 97.2721
RA_OF_ASC_NODE = 26.1289
ARG_OF_PERICENTER = 52.1701
MEAN_ANOMALY   = 307.9839

EPHEMERIS_TYPE = 0
CLASSIFICATION_TYPE = U
NORAD_CAT_ID   = 68021
ELEMENT_SET_NO = 999
REV_AT_EPOCH   = 269
BSTAR          = .9879512E-4
MEAN_MOTION_DOT = .34885E-3
MEAN_MOTION_DDOT = .2668894E-5

CCSDS_OMM_VERS = 2.0
CREATION_DATE  = 
ORIGINATOR     = 

OBJECT_NAME    = STARLINK-36916
OBJECT_ID      = 2026-040H
CENTER_NAME    = EARTH
REF_FRAME      = TEME
TIME_SYSTEM    = UTC
MEAN_ELEMENT_THEORY = SGP/SGP4

EPOCH          = 2026-03-18T06:00:02.000160
MEAN_MOTION    = 15.83029715
ECCENTRICITY   = .00015682
INCLINATION    = 97.2712
RA_OF_ASC_NODE = 26.1069
ARG_OF_PERICENTER = 112.4067
MEAN_ANOMALY   = 196.8244

EPHEMERIS_TYPE = 0
CLASSIFICATION_TYPE = U
NORAD_CAT_ID   = 68022
ELEMENT_SET_NO = 999
REV_AT_EPOCH   = 380
BSTAR          = -.76815581E-2
MEAN_MOTION_DOT = -.1447807E-1
MEAN_MOTION_DDOT = 0

CCSDS_OMM_VERS = 2.0
CREATION_DATE  = 
ORIGINATOR     = 

OBJECT_NAME    = STARLINK-36871
OBJECT_ID      = 2026-040J
CENTER_NAME    = EARTH
REF_FRAME      = TEME
TIME_SYSTEM    = UTC
MEAN_ELEMENT_THEORY = SGP/SGP4

EPOCH          = 2026-03-18T12:00:02.998944
MEAN_MOTION    = 15.82225905
ECCENTRICITY   = .0001279
INCLINATION    = 97.2715
RA_OF_ASC_NODE = 26.3744
ARG_OF_PERICENTER = 94.2022
MEAN_ANOMALY   = 202.8089

EPHEMERIS_TYPE = 0
CLASSIFICATION_TYPE = U
NORAD_CAT_ID   = 68023
ELEMENT_SET_NO = 999
REV_AT_EPOCH   = 384
BSTAR          = -.83814E-2
MEAN_MOTION_DOT = -.1512272E-1
MEAN_MOTION_DDOT = 0

CCSDS_OMM_VERS = 2.0
CREATION_DATE  = 
ORIGINATOR     = 

OBJECT_NAME    = STARLINK-36891
OBJECT_ID      = 2026-040K
CENTER_NAME    = EARTH
REF_FRAME      = TEME
TIME_SYSTEM    = UTC
MEAN_ELEMENT_THEORY = SGP/SGP4

EPOCH          = 2026-03-18T12:00:02.998944
MEAN_MOTION    = 15.82099521
ECCENTRICITY   = .0001613
INCLINATION    = 97.2716
RA_OF_ASC_NODE = 26.3767
ARG_OF_PERICENTER = 97.0363
MEAN_ANOMALY   = 204.4029

EPHEMERIS_TYPE = 0
CLASSIFICATION_TYPE = U
NORAD_CAT_ID   = 68024
ELEMENT_SET_NO = 999
REV_AT_EPOCH   = 384
BSTAR          = -.80524E-2
MEAN_MOTION_DOT = -.1452232E-1
MEAN_MOTION_DDOT = 0

